ZHONGXING-2E            
1 49062U 21071A   26189.91294792 -.00000277  00000+0  00000+0 0  9996
2 49062   0.0687 244.3914 0001451 257.6857 211.5053  1.00268625 18255
TJS-7                   
1 49115U 21077A   26189.98645727 -.00000109  00000+0  00000+0 0  9990
2 49115   0.3022 264.2204 0003128 112.6988 165.6565  1.00270240  9760
CHINASAT 9B             
1 49125U 21080A   26189.91413682 -.00000298  00000+0  00000+0 0  9990
2 49125   0.0161  82.6924 0002132  59.0619 215.6186  1.00271648 17860
SHIJIAN-21 (SJ-21)      
1 49330U 21094A   26189.76924814 -.00000337  00000+0  00000+0 0  9994
2 49330   5.1609  61.0457 0051603 168.7617 101.5502  1.00281370  5579
SES-17                  
1 49332U 21095A   26189.77143299 -.00000258  00000+0  00000+0 0  9990
2 49332   0.0230  44.4860 0000891  69.7042  23.1428  1.00268746 18070
SYRACUSE 4A             
1 49333U 21095B   26189.84767019  .00000000  00000+0  00000+0 0  9995
2 49333   0.0235  34.2263 0001429  69.0567 174.1924  1.00270699 18161
QZS-1R (MICHIBIKI-1R)   
1 49336U 21096A   26189.63484497 -.00000271  00000+0  00000+0 0  9993
2 49336  37.5026  79.2668 0755133 272.1320 296.0484  1.00247751 17221
ZHONGXING-1D            
1 49505U 21114A   26189.88150559 -.00000322  00000+0  00000+0 0  9995
2 49505   0.0517 242.6778 0000241  32.3982  99.2968  1.00272100 17035
STPSAT-6                
1 49817U 21118A   26189.60889929 -.00000031  00000+0  00000+0 0  9992
2 49817   0.3728  85.1835 0000897 244.4325  64.3987  1.00270021 16781
EXPRESS AMU-7           
1 50001U 21123A   26189.81344006 -.00000228  00000+0  00000+0 0  9998
2 50001   0.0281 279.4266 0000247  84.2358   0.9394  1.00272036 16753
EXPRESS AMU-3           
1 50002U 21123B   26189.91709293 -.00000308  00000+0  00000+0 0  9992
2 50002   0.0098 316.4015 0000206   3.4003  40.1989  1.00275114  7249
TIANLIAN 2-02           
1 50005U 21124A   26190.24624699 -.00000001  00000+0  00000+0 0  9990
2 50005   0.8554  85.7776 0001411 164.1219 296.9182  1.00271431 16840
TURKSAT 5B              
1 50212U 21126A   26189.79294462  .00000161  00000+0  00000+0 0  9997
2 50212   0.0699 337.8733 0002427  16.8668 259.4521  1.00270550 16511
INMARSAT 6-F1           
1 50319U 21128A   26189.88854134 -.00000157  00000+0  00000+0 0  9991
2 50319   0.0134 309.8337 0000135 272.6894 107.9321  1.00269717 16472
SHIYAN-12 01 (SY-12 01) 
1 50321U 21129A   26189.43666000  .00000161  00000+0  00000+0 0  9993
2 50321   3.7260  79.6260 0002673 287.4804 119.1541  1.00048003 16715
SHIYAN-12 02 (SY-12 02) 
1 50322U 21129B   26189.75873867 -.00000339  00000+0  00000+0 0  9998
2 50322   3.7260  79.6227 0003064  67.9841 157.8023  1.00480740 16718
TJS-9                   
1 50574U 21135A   26190.31090633 -.00000285  00000+0  00000+0 0  9990
2 50574   0.0335 109.5985 0002398 318.7291 108.0455  1.00275021 16653
GOES 18                 
1 51850U 22021A   26189.68625485  .00000111  00000+0  00000+0 0  9997
2 51850   0.0126 261.0292 0000564 278.4655 217.1840  1.00271752  6806
ZHONGXING-6D            
1 52255U 22038A   26189.85601936 -.00000339  00000+0  00000+0 0  9992
2 52255   0.0421 252.6142 0000758 282.3590 185.0299  1.00269034 15633
NILESAT 301             
1 52817U 22061A   26189.85461778 -.00000043  00000+0  00000+0 0  9992
2 52817   0.0500 336.9707 0004175  84.8545 165.6840  1.00272787 14959
CMS-02 (GSAT-24)        
1 52903U 22067A   26189.58723568  .00000000  00000+0  00000+0 0  9994
2 52903   0.0186  56.3795 0000751 298.4773 226.0709  1.00270851 14829
MEASAT 3D               
1 52904U 22067B   26189.91850285 -.00000227  00000+0  00000+0 0  9991
2 52904   0.0575 297.3053 0000573 241.3892 170.3208  1.00270464 14866
SES-22                  
1 52933U 22071A   26189.61462209  .00000119  00000+0  00000+0 0  9999
2 52933   0.0268 289.5933 0000889 166.7781 272.4599  1.00268363  7734
WFOV (USA 332)          
1 52940U 22073A   26189.59416904 -.00000350  00000+0  00000+0 0  9995
2 52940   3.7624  78.2586 0001435 219.5508 321.9582  1.00271015 14588
TIANLIAN 2-03           
1 53100U 22078A   26189.35905649  .00000087  00000+0  00000+0 0  9998
2 53100   0.7240  77.3899 0000943 354.9454 353.8343  1.00273822 14758
SBIRS GEO-6 (USA 336)   
1 53355U 22092A   26189.88349894 -.00000275  00000+0  00000+0 0  9998
2 53355   3.2226 317.8246 0001790 151.0285 275.0462  1.00271266 14453
EUTELSAT KONNECT VHTS   
1 53765U 22110A   26189.85652444  .00000031  00000+0  00000+0 0  9998
2 53765   0.0572  99.2823 0002841 342.5411 156.0335  1.00267986  7054
ZHONGXING-1E            
1 53813U 22112A   26189.87205888 -.00000134  00000+0  00000+0 0  9997
2 53813   0.0418 122.2555 0000693 112.6928  87.1975  1.00269542 14061
SES-20                  
1 53960U 22123A   26189.90663904 -.00000086  00000+0  00000+0 0  9999
2 53960   0.0191  65.8890 0001859  27.0010  57.2452  1.00269593 13751
SES-21                  
1 53961U 22123B   26189.61618211  .00000000  00000+0  00000+0 0  9994
2 53961   0.0374  26.5834 0001023  83.2955 267.5949  1.00269367  7425
GALAXY 33 (G-33)        
1 54026U 22128A   26189.68703485  .00000094  00000+0  00000+0 0  9990
2 54026   0.0091 332.8911 0001866 141.4798 286.6050  1.00270041 13951
