OBJECT_NAME,OBJECT_ID,EPOCH,MEAN_MOTION,ECCENTRICITY,INCLINATION,RA_OF_ASC_NODE,ARG_OF_PERICENTER,MEAN_ANOMALY,EPHEMERIS_TYPE,CLASSIFICATION_TYPE,NORAD_CAT_ID,ELEMENT_SET_NO,REV_AT_EPOCH,BSTAR,MEAN_MOTION_DOT,MEAN_MOTION_DDOT
ZHONGXING-2E,2021-071A,2026-07-08T21:54:38.700288,1.00268625,.00014513,0.0687,244.3914,257.6857,211.5053,0,U,49062,999,1825,0,-.277E-5,0
TJS-7,2021-077A,2026-07-08T23:40:29.908128,1.00270240,.00031286,0.3022,264.2204,112.6988,165.6565,0,U,49115,999,976,0,-.109E-5,0
CHINASAT 9B,2021-080A,2026-07-08T21:56:21.421248,1.00271648,.00021321,0.0161,82.6924,59.0619,215.6186,0,U,49125,999,1786,0,-.298E-5,0
SHIJIAN-21 (SJ-21),2021-094A,2026-07-08T18:27:43.039296,1.00281370,.00516033,5.1609,61.0457,168.7617,101.5502,0,U,49330,999,557,0,-.337E-5,0
SES-17,2021-095A,2026-07-08T18:30:51.810336,1.00268746,.00008916,0.0230,44.4860,69.7042,23.1428,0,U,49332,999,1807,0,-.258E-5,0
SYRACUSE 4A,2021-095B,2026-07-08T20:20:38.704416,1.00270699,.00014298,0.0235,34.2263,69.0567,174.1924,0,U,49333,999,1816,0,0,0
QZS-1R (MICHIBIKI-1R),2021-096A,2026-07-08T15:14:10.605408,1.00247751,.07551338,37.5026,79.2668,272.1320,296.0484,0,U,49336,999,1722,0,-.271E-5,0
ZHONGXING-1D,2021-114A,2026-07-08T21:09:22.082976,1.00272100,.00002419,0.0517,242.6778,32.3982,99.2968,0,U,49505,999,1703,0,-.322E-5,0
STPSAT-6,2021-118A,2026-07-08T14:36:48.898656,1.00270021,.00008976,0.3728,85.1835,244.4325,64.3987,0,U,49817,999,1678,0,-.31E-6,0
EXPRESS AMU-7,2021-123A,2026-07-08T19:31:21.221184,1.00272036,.00002473,0.0281,279.4266,84.2358,0.9394,0,U,50001,999,1675,0,-.228E-5,0
EXPRESS AMU-3,2021-123B,2026-07-08T22:00:36.829152,1.00275114,.0000206,0.0098,316.4015,3.4003,40.1989,0,U,50002,999,724,0,-.308E-5,0
TIANLIAN 2-02,2021-124A,2026-07-09T05:54:35.739936,1.00271431,.0001411,0.8554,85.7776,164.1219,296.9182,0,U,50005,999,1684,0,-.1E-7,0
TURKSAT 5B,2021-126A,2026-07-08T19:01:50.415168,1.00270550,.0002427,0.0699,337.8733,16.8668,259.4521,0,U,50212,999,1651,0,.161E-5,0
INMARSAT 6-F1,2021-128A,2026-07-08T21:19:29.971776,1.00269717,.00001351,0.0134,309.8337,272.6894,107.9321,0,U,50319,999,1647,0,-.157E-5,0
SHIYAN-12 01 (SY-12 01),2021-129A,2026-07-08T10:28:47.424000,1.00048003,.0002673,3.7260,79.6260,287.4804,119.1541,0,U,50321,999,1671,0,.161E-5,0
SHIYAN-12 02 (SY-12 02),2021-129B,2026-07-08T18:12:35.021088,1.00480740,.0003064,3.7260,79.6227,67.9841,157.8023,0,U,50322,999,1671,0,-.339E-5,0
TJS-9,2021-135A,2026-07-09T07:27:42.306912,1.00275021,.0002398,0.0335,109.5985,318.7291,108.0455,0,U,50574,999,1665,0,-.285E-5,0
GOES 18,2022-021A,2026-07-08T16:28:12.419040,1.00271752,.0000564,0.0126,261.0292,278.4655,217.1840,0,U,51850,999,680,0,.111E-5,0
ZHONGXING-6D,2022-038A,2026-07-08T20:32:40.072704,1.00269034,.00007581,0.0421,252.6142,282.3590,185.0299,0,U,52255,999,1563,0,-.339E-5,0
NILESAT 301,2022-061A,2026-07-08T20:30:38.976192,1.00272787,.00041759,0.0500,336.9707,84.8545,165.6840,0,U,52817,999,1495,0,-.43E-6,0
CMS-02 (GSAT-24),2022-067A,2026-07-08T14:05:37.162752,1.00270851,.00007515,0.0186,56.3795,298.4773,226.0709,0,U,52903,999,1482,0,0,0
MEASAT 3D,2022-067B,2026-07-08T22:02:38.646240,1.00270464,.00005734,0.0575,297.3053,241.3892,170.3208,0,U,52904,999,1486,0,-.227E-5,0
SES-22,2022-071A,2026-07-08T14:45:03.348576,1.00268363,.00008892,0.0268,289.5933,166.7781,272.4599,0,U,52933,999,773,0,.119E-5,0
WFOV (USA 332),2022-073A,2026-07-08T14:15:36.205056,1.00271015,.00014351,3.7624,78.2586,219.5508,321.9582,0,U,52940,999,1458,0,-.35E-5,0
TIANLIAN 2-03,2022-078A,2026-07-08T08:37:02.480736,1.00273822,.00009434,0.7240,77.3899,354.9454,353.8343,0,U,53100,999,1475,0,.87E-6,0
SBIRS GEO-6 (USA 336),2022-092A,2026-07-08T21:12:14.308416,1.00271266,.00017908,3.2226,317.8246,151.0285,275.0462,0,U,53355,999,1445,0,-.275E-5,0
EUTELSAT KONNECT VHTS,2022-110A,2026-07-08T20:33:23.711616,1.00267986,.00028418,0.0572,99.2823,342.5411,156.0335,0,U,53765,999,705,0,.31E-6,0
ZHONGXING-1E,2022-112A,2026-07-08T20:55:45.887232,1.00269542,.00006937,0.0418,122.2555,112.6928,87.1975,0,U,53813,999,1406,0,-.134E-5,0
SES-20,2022-123A,2026-07-08T21:45:33.613056,1.00269593,.00018598,0.0191,65.8890,27.0010,57.2452,0,U,53960,999,1375,0,-.86E-6,0
SES-21,2022-123B,2026-07-08T14:47:18.134304,1.00269367,.00010236,0.0374,26.5834,83.2955,267.5949,0,U,53961,999,742,0,0,0
GALAXY 33 (G-33),2022-128A,2026-07-08T16:29:19.811040,1.00270041,.00018669,0.0091,332.8911,141.4798,286.6050,0,U,54026,999,1395,0,.94E-6,0
